SL-16 R/B               
1 22803U 93059B   26066.14772221 -.00000148  00000+0 -49433-4 0  9998
2 22803  70.9925  16.4859 0018662 220.1979 139.7765 14.17231991679171
ARIANE 40 R/B           
1 22830U 93061H   26066.18467539  .00000229  00000+0  99890-4 0  9998
2 22830  98.4920 135.1216 0009597 293.3433  66.6741 14.32859251693744
COSMOS 2278             
1 23087U 94023A   26065.55659720  .00000237  00000+0  14823-3 0  9998
2 23087  71.0547 181.6513 0007809  19.4739 340.6680 14.14377500644360
SL-16 R/B               
1 23088U 94023B   26066.17000015 -.00000216  00000+0 -86892-4 0  9990
2 23088  70.9986  76.1792 0005702 288.0607  71.9894 14.15012696645737
SL-16 R/B               
1 23343U 94074B   26066.08769387  .00000572  00000+0  83366-4 0  9990
2 23343  97.7112  97.0107 0005599 220.4071 199.2598 14.79404053686866
SL-16 R/B               
1 23405U 94077B   26066.15260561 -.00000167  00000+0 -60994-4 0  9994
2 23405  70.9853 357.8260 0003251 215.6736 144.4170 14.15561243615870
ARIANE 40+ R/B          
1 23561U 95021B   26066.17462281  .00000345  00000+0  12380-3 0  9993
2 23561  98.4502 137.6913 0007541 143.1923 270.9056 14.39770076618881
SL-16 R/B               
1 23705U 95058B   26065.38213492  .00000158  00000+0  10512-3 0  9990
2 23705  71.0214 187.1984 0010942 131.6757 228.5304 14.15493388567387
SL-16 R/B               
1 24298U 96051B   26065.55411808  .00000115  00000+0  88750-4 0  9995
2 24298  70.7599 181.8749 0015351 152.7851 207.4077 14.12414681521205
ORBVIEW 2 (SEASTAR)     
1 24883U 97037A   26066.04802038  .00000389  00000+0  15146-3 0  9995
2 24883  98.8562 230.2898 0003146  77.4290 282.7246 14.35492463508094
SL-16 R/B               
1 25400U 98043G   26065.85490177  .00000098  00000+0  60097-4 0  9997
2 25400  98.8251  19.1984 0010352  28.2706 331.9034 14.26048938438580
SL-16 R/B               
1 25407U 98045B   26066.03038703 -.00000008  00000+0  19920-4 0  9991
2 25407  71.0113 187.1655 0006592  12.1733 347.9549 14.16189284426721
ISS (ZARYA)             
1 25544U 98067A   26065.86737742  .00008564  00000+0  16627-3 0  9990
2 25544  51.6318  86.3097 0008109 164.5613 195.5624 15.48482048555891
CZ-4B R/B               
1 25732U 99025C   26066.12581469  .00000051  00000+0  45517-4 0  9991
2 25732  98.6631 110.4680 0036892 354.0366  67.6719 14.18264762387802
OKEAN-O                 
1 25860U 99039A   26066.15101617  .00000824  00000+0  11497-3 0  9991
2 25860  97.9447 126.0683 0001314  69.7797 290.3556 14.80330216434013
SL-16 R/B               
1 25861U 99039B   26066.13327098  .00000692  00000+0  94513-4 0  9997
2 25861  97.9971 125.2338 0013466 265.2812  94.6862 14.81726893436485
DELTA 2 R/B             
1 25876U 99041E   26066.03481819  .00001232  00000+0  23640-3 0  9990
2 25876  51.7637 311.8847 0502343 340.6027  17.6374 14.11828961362651
