[{"OBJECT_NAME":"SL-16 R/B","OBJECT_ID":"1993-059B","EPOCH":"2026-03-07T03:32:43.198944","MEAN_MOTION":14.17231991,"ECCENTRICITY":0.0018662,"INCLINATION":70.9925,"RA_OF_ASC_NODE":16.4859,"ARG_OF_PERICENTER":220.1979,"MEAN_ANOMALY":139.7765,"EPHEMERIS_TYPE":0,"CLASSIFICATION_TYPE":"U","NORAD_CAT_ID":22803,"ELEMENT_SET_NO":999,"REV_AT_EPOCH":67917,"BSTAR":-4.9433e-5,"MEAN_MOTION_DOT":-1.48e-6,"MEAN_MOTION_DDOT":0},{"OBJECT_NAME":"ARIANE 40 R/B","OBJECT_ID":"1993-061H","EPOCH":"2026-03-07T04:25:55.953696","MEAN_MOTION":14.32859251,"ECCENTRICITY":0.0009597,"INCLINATION":98.492,"RA_OF_ASC_NODE":135.1216,"ARG_OF_PERICENTER":293.3433,"MEAN_ANOMALY":66.6741,"EPHEMERIS_TYPE":0,"CLASSIFICATION_TYPE":"U","NORAD_CAT_ID":22830,"ELEMENT_SET_NO":999,"REV_AT_EPOCH":69374,"BSTAR":9.989e-5,"MEAN_MOTION_DOT":2.29e-6,"MEAN_MOTION_DDOT":0},{"OBJECT_NAME":"COSMOS 2278","OBJECT_ID":"1994-023A","EPOCH":"2026-03-06T13:21:29.998080","MEAN_MOTION":14.143775,"ECCENTRICITY":0.00078096,"INCLINATION":71.0547,"RA_OF_ASC_NODE":181.6513,"ARG_OF_PERICENTER":19.4739,"MEAN_ANOMALY":340.668,"EPHEMERIS_TYPE":0,"CLASSIFICATION_TYPE":"U","NORAD_CAT_ID":23087,"ELEMENT_SET_NO":999,"REV_AT_EPOCH":64436,"BSTAR":0.0001482273,"MEAN_MOTION_DOT":2.37e-6,"MEAN_MOTION_DDOT":0},{"OBJECT_NAME":"SL-16 R/B","OBJECT_ID":"1994-023B","EPOCH":"2026-03-07T04:04:48.012960","MEAN_MOTION":14.15012696,"ECCENTRICITY":0.0005702,"INCLINATION":70.9986,"RA_OF_ASC_NODE":76.1792,"ARG_OF_PERICENTER":288.0607,"MEAN_ANOMALY":71.9894,"EPHEMERIS_TYPE":0,"CLASSIFICATION_TYPE":"U","NORAD_CAT_ID":23088,"ELEMENT_SET_NO":999,"REV_AT_EPOCH":64573,"BSTAR":-8.6892e-5,"MEAN_MOTION_DOT":-2.16e-6,"MEAN_MOTION_DDOT":0},{"OBJECT_NAME":"SL-16 R/B","OBJECT_ID":"1994-074B","EPOCH":"2026-03-07T02:06:16.750368","MEAN_MOTION":14.79404053,"ECCENTRICITY":0.0005599,"INCLINATION":97.7112,"RA_OF_ASC_NODE":97.0107,"ARG_OF_PERICENTER":220.4071,"MEAN_ANOMALY":199.2598,"EPHEMERIS_TYPE":0,"CLASSIFICATION_TYPE":"U","NORAD_CAT_ID":23343,"ELEMENT_SET_NO":999,"REV_AT_EPOCH":68686,"BSTAR":8.3366e-5,"MEAN_MOTION_DOT":5.72e-6,"MEAN_MOTION_DDOT":0},{"OBJECT_NAME":"SL-16 R/B","OBJECT_ID":"1994-077B","EPOCH":"2026-03-07T03:39:45.124704","MEAN_MOTION":14.15561243,"ECCENTRICITY":0.0003251,"INCLINATION":70.9853,"RA_OF_ASC_NODE":357.826,"ARG_OF_PERICENTER":215.6736,"MEAN_ANOMALY":144.417,"EPHEMERIS_TYPE":0,"CLASSIFICATION_TYPE":"U","NORAD_CAT_ID":23405,"ELEMENT_SET_NO":999,"REV_AT_EPOCH":61587,"BSTAR":-6.0994e-5,"MEAN_MOTION_DOT":-1.67e-6,"MEAN_MOTION_DDOT":0},{"OBJECT_NAME":"ARIANE 40+ R/B","OBJECT_ID":"1995-021B","EPOCH":"2026-03-07T04:11:27.410784","MEAN_MOTION":14.39770076,"ECCENTRICITY":0.0007541,"INCLINATION":98.4502,"RA_OF_ASC_NODE":137.6913,"ARG_OF_PERICENTER":143.1923,"MEAN_ANOMALY":270.9056,"EPHEMERIS_TYPE":0,"CLASSIFICATION_TYPE":"U","NORAD_CAT_ID":23561,"ELEMENT_SET_NO":999,"REV_AT_EPOCH":61888,"BSTAR":0.0001238,"MEAN_MOTION_DOT":3.45e-6,"MEAN_MOTION_DDOT":0},{"OBJECT_NAME":"SL-16 R/B","OBJECT_ID":"1995-058B","EPOCH":"2026-03-06T09:10:16.457088","MEAN_MOTION":14.15493388,"ECCENTRICITY":0.00109424,"INCLINATION":71.0214,"RA_OF_ASC_NODE":187.1984,"ARG_OF_PERICENTER":131.6757,"MEAN_ANOMALY":228.5304,"EPHEMERIS_TYPE":0,"CLASSIFICATION_TYPE":"U","NORAD_CAT_ID":23705,"ELEMENT_SET_NO":999,"REV_AT_EPOCH":56738,"BSTAR":0.00010511608,"MEAN_MOTION_DOT":1.58e-6,"MEAN_MOTION_DDOT":0},{"OBJECT_NAME":"SL-16 R/B","OBJECT_ID":"1996-051B","EPOCH":"2026-03-06T13:17:55.802112","MEAN_MOTION":14.12414681,"ECCENTRICITY":0.00153516,"INCLINATION":70.7599,"RA_OF_ASC_NODE":181.8749,"ARG_OF_PERICENTER":152.7851,"MEAN_ANOMALY":207.4077,"EPHEMERIS_TYPE":0,"CLASSIFICATION_TYPE":"U","NORAD_CAT_ID":24298,"ELEMENT_SET_NO":999,"REV_AT_EPOCH":52120,"BSTAR":8.8749892e-5,"MEAN_MOTION_DOT":1.15e-6,"MEAN_MOTION_DDOT":0},{"OBJECT_NAME":"ORBVIEW 2 (SEASTAR)","OBJECT_ID":"1997-037A","EPOCH":"2026-03-07T01:09:08.960832","MEAN_MOTION":14.35492463,"ECCENTRICITY":0.0003146,"INCLINATION":98.8562,"RA_OF_ASC_NODE":230.2898,"ARG_OF_PERICENTER":77.429,"MEAN_ANOMALY":282.7246,"EPHEMERIS_TYPE":0,"CLASSIFICATION_TYPE":"U","NORAD_CAT_ID":24883,"ELEMENT_SET_NO":999,"REV_AT_EPOCH":50809,"BSTAR":0.00015146,"MEAN_MOTION_DOT":3.89e-6,"MEAN_MOTION_DDOT":0},{"OBJECT_NAME":"SL-16 R/B","OBJECT_ID":"1998-043G","EPOCH":"2026-03-06T20:31:03.512928","MEAN_MOTION":14.26048938,"ECCENTRICITY":0.0010352,"INCLINATION":98.8251,"RA_OF_ASC_NODE":19.1984,"ARG_OF_PERICENTER":28.2706,"MEAN_ANOMALY":331.9034,"EPHEMERIS_TYPE":0,"CLASSIFICATION_TYPE":"U","NORAD_CAT_ID":25400,"ELEMENT_SET_NO":999,"REV_AT_EPOCH":43858,"BSTAR":6.0097e-5,"MEAN_MOTION_DOT":9.8e-7,"MEAN_MOTION_DDOT":0},{"OBJECT_NAME":"SL-16 R/B","OBJECT_ID":"1998-045B","EPOCH":"2026-03-07T00:43:45.439392","MEAN_MOTION":14.16189284,"ECCENTRICITY":0.0006592,"INCLINATION":71.0113,"RA_OF_ASC_NODE":187.1655,"ARG_OF_PERICENTER":12.1733,"MEAN_ANOMALY":347.9549,"EPHEMERIS_TYPE":0,"CLASSIFICATION_TYPE":"U","NORAD_CAT_ID":25407,"ELEMENT_SET_NO":999,"REV_AT_EPOCH":42672,"BSTAR":1.992e-5,"MEAN_MOTION_DOT":-8.0e-8,"MEAN_MOTION_DDOT":0},{"OBJECT_NAME":"ISS (ZARYA)","OBJECT_ID":"1998-067A","EPOCH":"2026-03-06T20:49:01.409088","MEAN_MOTION":15.48482048,"ECCENTRICITY":0.0008109,"INCLINATION":51.6318,"RA_OF_ASC_NODE":86.3097,"ARG_OF_PERICENTER":164.5613,"MEAN_ANOMALY":195.5624,"EPHEMERIS_TYPE":0,"CLASSIFICATION_TYPE":"U","NORAD_CAT_ID":25544,"ELEMENT_SET_NO":999,"REV_AT_EPOCH":55589,"BSTAR":0.00016627,"MEAN_MOTION_DOT":8.564e-5,"MEAN_MOTION_DDOT":0},{"OBJECT_NAME":"CZ-4B R/B","OBJECT_ID":"1999-025C","EPOCH":"2026-03-07T03:01:10.389216","MEAN_MOTION":14.18264762,"ECCENTRICITY":0.0036892,"INCLINATION":98.6631,"RA_OF_ASC_NODE":110.468,"ARG_OF_PERICENTER":354.0366,"MEAN_ANOMALY":67.6719,"EPHEMERIS_TYPE":0,"CLASSIFICATION_TYPE":"U","NORAD_CAT_ID":25732,"ELEMENT_SET_NO":999,"REV_AT_EPOCH":38780,"BSTAR":4.5517e-5,"MEAN_MOTION_DOT":5.1e-7,"MEAN_MOTION_DDOT":0},{"OBJECT_NAME":"OKEAN-O","OBJECT_ID":"1999-039A","EPOCH":"2026-03-07T03:37:27.797088","MEAN_MOTION":14.80330216,"ECCENTRICITY":0.0001314,"INCLINATION":97.9447,"RA_OF_ASC_NODE":126.0683,"ARG_OF_PERICENTER":69.7797,"MEAN_ANOMALY":290.3556,"EPHEMERIS_TYPE":0,"CLASSIFICATION_TYPE":"U","NORAD_CAT_ID":25860,"ELEMENT_SET_NO":999,"REV_AT_EPOCH":43401,"BSTAR":0.00011497,"MEAN_MOTION_DOT":8.24e-6,"MEAN_MOTION_DDOT":0},{"OBJECT_NAME":"SL-16 R/B","OBJECT_ID":"1999-039B","EPOCH":"2026-03-07T03:11:54.612672","MEAN_MOTION":14.81726893,"ECCENTRICITY":0.0013466,"INCLINATION":97.9971,"RA_OF_ASC_NODE":125.2338,"ARG_OF_PERICENTER":265.2812,"MEAN_ANOMALY":94.6862,"EPHEMERIS_TYPE":0,"CLASSIFICATION_TYPE":"U","NORAD_CAT_ID":25861,"ELEMENT_SET_NO":999,"REV_AT_EPOCH":43648,"BSTAR":9.4513e-5,"MEAN_MOTION_DOT":6.92e-6,"MEAN_MOTION_DDOT":0},{"OBJECT_NAME":"DELTA 2 R/B","OBJECT_ID":"1999-041E","EPOCH":"2026-03-07T00:50:08.291616","MEAN_MOTION":14.11828961,"ECCENTRICITY":0.0502343,"INCLINATION":51.7637,"RA_OF_ASC_NODE":311.8847,"ARG_OF_PERICENTER":340.6027,"MEAN_ANOMALY":17.6374,"EPHEMERIS_TYPE":0,"CLASSIFICATION_TYPE":"U","NORAD_CAT_ID":25876,"ELEMENT_SET_NO":999,"REV_AT_EPOCH":36265,"BSTAR":0.0002364,"MEAN_MOTION_DOT":1.232e-5,"MEAN_MOTION_DDOT":0}]
